CTC2_L_00121001-01
1 88193U 22164QM  26037.47791667  .00000000  00000+0  00000-0 0  9998
2 88193  40.0000   0.0000 0000000   0.0000   0.0000 14.42576027    14
CTC2_L_00121001-02
1 88194U 24900EO  26037.47791667  .00000000  00000+0  00000-0 0  9999
2 88194  40.0000   0.0000 0000000   0.0000  90.0000 14.42576027    14
CTC2_L_00121001-03
1 88195U 24817OW  26037.47791667  .00000000  00000+0  00000-0 0  9997
2 88195  40.0000   0.0000 0000000   0.0000 180.0000 14.42576027    15
CTC2_L_00121001-04
1 88196U 22122QL  26037.47791667  .00000000  00000+0  00000-0 0  9995
2 88196  40.0000   0.0000 0000000   0.0000 270.0000 14.42576027    16
CTC2_L_00121002-01
1 88197U 26792JK  26037.47791667  .00000000  00000+0  00000-0 0  9993
2 88197  40.0000  12.0000 0000000   0.0000  12.0000 14.42576027    14
CTC2_L_00121002-02
1 88198U 26434DA  26037.47791667  .00000000  00000+0  00000-0 0  9997
2 88198  40.0000  12.0000 0000000   0.0000 102.0000 14.42576027    15
CTC2_L_00121002-03
1 88199U 22373ZI  26037.47791667  .00000000  00000+0  00000-0 0  9996
2 88199  40.0000  12.0000 0000000   0.0000 192.0000 14.42576027    15
CTC2_L_00121002-04
1 88200U 26831XC  26037.47791667  .00000000  00000+0  00000-0 0  9992
2 88200  40.0000  12.0000 0000000   0.0000 282.0000 14.42576027    18
CTC2_L_00121003-01
1 88201U 24753RC  26037.47791667  .00000000  00000+0  00000-0 0  9994
2 88201  40.0000  24.0000 0000000   0.0000  24.0000 14.42576027    16
CTC2_L_00121003-02
1 88202U 25101IY  26037.47791667  .00000000  00000+0  00000-0 0  9993
2 88202  40.0000  24.0000 0000000   0.0000 114.0000 14.42576027    17
CTC2_L_00121003-03
1 88203U 22440JR  26037.47791667  .00000000  00000+0  00000-0 0  9997
2 88203  40.0000  24.0000 0000000   0.0000 204.0000 14.42576027    18
CTC2_L_00121003-04
1 88204U 24308PC  26037.47791667  .00000000  00000+0  00000-0 0  9993
2 88204  40.0000  24.0000 0000000   0.0000 294.0000 14.42576027    18
CTC2_L_00121004-01
1 88205U 23307CF  26037.47791667  .00000000  00000+0  00000-0 0  9992
2 88205  40.0000  36.0000 0000000   0.0000  36.0000 14.42576027    16
CTC2_L_00121004-02
1 88206U 26009US  26037.47791667  .00000000  00000+0  00000-0 0  9995
2 88206  40.0000  36.0000 0000000   0.0000 126.0000 14.42576027    17
CTC2_L_00121004-03
1 88207U 26937Z   26037.47791667  .00000000  00000+0  00000-0 0  9996
2 88207  40.0000  36.0000 0000000   0.0000 216.0000 14.42576027    18
CTC2_L_00121004-04
1 88208U 23928FH  26037.47791667  .00000000  00000+0  00000-0 0  9994
2 88208  40.0000  36.0000 0000000   0.0000 306.0000 14.42576027    19
CTC2_L_00121005-01
1 88209U 25877IL  26037.47791667  .00000000  00000+0  00000-0 0  9990
2 88209  40.0000  48.0000 0000000   0.0000  48.0000 14.42576027    16
CTC2_L_00121005-02
1 88210U 25205ZO  26037.47791667  .00000000  00000+0  00000-0 0  9997
2 88210  40.0000  48.0000 0000000   0.0000 138.0000 14.42576027    18
CTC2_L_00121005-03
1 88211U 23841BH  26037.47791667  .00000000  00000+0  00000-0 0  9992
2 88211  40.0000  48.0000 0000000   0.0000 228.0000 14.42576027    19
CTC2_L_00121005-04
1 88212U 22931ZC  26037.47791667  .00000000  00000+0  00000-0 0  9992
2 88212  40.0000  48.0000 0000000   0.0000 318.0000 14.42576027    10
CTC2_L_00121006-01
1 88213U 23466EB  26037.47791667  .00000000  00000+0  00000-0 0  9997
2 88213  40.0000  60.0000 0000000   0.0000  60.0000 14.42576027    19
CTC2_L_00121006-02
1 88214U 24985Z   26037.47791667  .00000000  00000+0  00000-0 0  9995
2 88214  40.0000  60.0000 0000000   0.0000 150.0000 14.42576027    10
CTC2_L_00121006-03
1 88215U 26120KD  26037.47791667  .00000000  00000+0  00000-0 0  9999
2 88215  40.0000  60.0000 0000000   0.0000 240.0000 14.42576027    11
CTC2_L_00121006-04
1 88216U 26314JK  26037.47791667  .00000000  00000+0  00000-0 0  9995
2 88216  40.0000  60.0000 0000000   0.0000 330.0000 14.42576027    12
CTC2_L_00121007-01
1 88217U 22140BD  26037.47791667  .00000000  00000+0  00000-0 0  9999
2 88217  40.0000  72.0000 0000000   0.0000  72.0000 14.42576027    19
CTC2_L_00121007-02
1 88218U 23780ED  26037.47791667  .00000000  00000+0  00000-0 0  9991
2 88218  40.0000  72.0000 0000000   0.0000 162.0000 14.42576027    10
CTC2_L_00121007-03
1 88219U 26834IY  26037.47791667  .00000000  00000+0  00000-0 0  9995
2 88219  40.0000  72.0000 0000000   0.0000 252.0000 14.42576027    11
CTC2_L_00121007-04
1 88220U 26182VW  26037.47791667  .00000000  00000+0  00000-0 0  9993
2 88220  40.0000  72.0000 0000000   0.0000 342.0000 14.42576027    13
CTC2_L_00121008-01
1 88221U 24317BM  26037.47791667  .00000000  00000+0  00000-0 0  9992
2 88221  40.0000  84.0000 0000000   0.0000  84.0000 14.42576027    10
CTC2_L_00121008-02
1 88222U 22959RP  26037.47791667  .00000000  00000+0  00000-0 0  9993
2 88222  40.0000  84.0000 0000000   0.0000 174.0000 14.42576027    11
CTC2_L_00121008-03
1 88223U 26630WB  26037.47791667  .00000000  00000+0  00000-0 0  9994
2 88223  40.0000  84.0000 0000000   0.0000 264.0000 14.42576027    12
CTC2_L_00121008-04
1 88224U 22706S   26037.47791667  .00000000  00000+0  00000-0 0  9995
2 88224  40.0000  84.0000 0000000   0.0000 354.0000 14.42576027    13
CTC2_L_00121009-01
1 88225U 26463NW  26037.47791667  .00000000  00000+0  00000-0 0  9990
2 88225  40.0000  96.0000 0000000   0.0000  96.0000 14.42576027    10
CTC2_L_00121009-02
1 88226U 22246FJ  26037.47791667  .00000000  00000+0  00000-0 0  9996
2 88226  40.0000  96.0000 0000000   0.0000 186.0000 14.42576027    11
CTC2_L_00121009-03
1 88227U 24590RU  26037.47791667  .00000000  00000+0  00000-0 0  9991
2 88227  40.0000  96.0000 0000000   0.0000 276.0000 14.42576027    12
CTC2_L_00121009-04
1 88228U 23475PQ  26037.47791667  .00000000  00000+0  00000-0 0  9993
2 88228  40.0000  96.0000 0000000   0.0000   6.0000 14.42576027    14
CTC2_L_00121010-01
1 88229U 24634SD  26037.47791667  .00000000  00000+0  00000-0 0  9992
2 88229  40.0000 108.0000 0000000   0.0000 108.0000 14.42576027    12
CTC2_L_00121010-02
1 88230U 26410SI  26037.47791667  .00000000  00000+0  00000-0 0  9998
2 88230  40.0000 108.0000 0000000   0.0000 198.0000 14.42576027    13
CTC2_L_00121010-03
1 88231U 22923BP  26037.47791667  .00000000  00000+0  00000-0 0  9994
2 88231  40.0000 108.0000 0000000   0.0000 288.0000 14.42576027    14
CTC2_L_00121010-04
1 88232U 24328K   26037.47791667  .00000000  00000+0  00000-0 0  9996
2 88232  40.0000 108.0000 0000000   0.0000  18.0000 14.42576027    16
CTC2_L_00121011-01
1 88233U 26172AR  26037.47791667  .00000000  00000+0  00000-0 0  9996
2 88233  40.0000 120.0000 0000000   0.0000 120.0000 14.42576027    15
CTC2_L_00121011-02
1 88234U 26156LM  26037.47791667  .00000000  00000+0  00000-0 0  9999
2 88234  40.0000 120.0000 0000000   0.0000 210.0000 14.42576027    16
CTC2_L_00121011-03
1 88235U 26766MX  26037.47791667  .00000000  00000+0  00000-0 0  9997
2 88235  40.0000 120.0000 0000000   0.0000 300.0000 14.42576027    17
CTC2_L_00121011-04
1 88236U 26077OK  26037.47791667  .00000000  00000+0  00000-0 0  9993
2 88236  40.0000 120.0000 0000000   0.0000  30.0000 14.42576027    18
CTC2_L_00121012-01
1 88237U 23343HA  26037.47791667  .00000000  00000+0  00000-0 0  9997
2 88237  40.0000 132.0000 0000000   0.0000 132.0000 14.42576027    15
CTC2_L_00121012-02
1 88238U 22003KL  26037.47791667  .00000000  00000+0  00000-0 0  9990
2 88238  40.0000 132.0000 0000000   0.0000 222.0000 14.42576027    16
CTC2_L_00121012-03
1 88239U 26172CY  26037.47791667  .00000000  00000+0  00000-0 0  9992
2 88239  40.0000 132.0000 0000000   0.0000 312.0000 14.42576027    17
CTC2_L_00121012-04
1 88240U 23216ET  26037.47791667  .00000000  00000+0  00000-0 0  9990
2 88240  40.0000 132.0000 0000000   0.0000  42.0000 14.42576027    19
CTC2_L_00121013-01
1 88241U 22853XE  26037.47791667  .00000000  00000+0  00000-0 0  9997
2 88241  40.0000 144.0000 0000000   0.0000 144.0000 14.42576027    16
CTC2_L_00121013-02
1 88242U 23413RF  26037.47791667  .00000000  00000+0  00000-0 0  9991
2 88242  40.0000 144.0000 0000000   0.0000 234.0000 14.42576027    17
CTC2_L_00121013-03
1 88243U 25750KJ  26037.47791667  .00000000  00000+0  00000-0 0  9998
2 88243  40.0000 144.0000 0000000   0.0000 324.0000 14.42576027    18
CTC2_L_00121013-04
1 88244U 25179TU  26037.47791667  .00000000  00000+0  00000-0 0  9994
2 88244  40.0000 144.0000 0000000   0.0000  54.0000 14.42576027    19
CTC2_L_00121014-01
1 88245U 26027CH  26037.47791667  .00000000  00000+0  00000-0 0  9998
2 88245  40.0000 156.0000 0000000   0.0000 156.0000 14.42576027    16
CTC2_L_00121014-02
1 88246U 22084PD  26037.47791667  .00000000  00000+0  00000-0 0  9998
2 88246  40.0000 156.0000 0000000   0.0000 246.0000 14.42576027    17
CTC2_L_00121014-03
1 88247U 26747QN  26037.47791667  .00000000  00000+0  00000-0 0  9999
2 88247  40.0000 156.0000 0000000   0.0000 336.0000 14.42576027    18
CTC2_L_00121014-04
1 88248U 23211BK  26037.47791667  .00000000  00000+0  00000-0 0  9993
2 88248  40.0000 156.0000 0000000   0.0000  66.0000 14.42576027    19
CTC2_L_00121015-01
1 88249U 26476LR  26037.47791667  .00000000  00000+0  00000-0 0  9990
2 88249  40.0000 168.0000 0000000   0.0000 168.0000 14.42576027    16
CTC2_L_00121015-02
1 88250U 25318TL  26037.47791667  .00000000  00000+0  00000-0 0  9996
2 88250  40.0000 168.0000 0000000   0.0000 258.0000 14.42576027    18
CTC2_L_00121015-03
1 88251U 26002DD  26037.47791667  .00000000  00000+0  00000-0 0  9998
2 88251  40.0000 168.0000 0000000   0.0000 348.0000 14.42576027    19
CTC2_L_00121015-04
1 88252U 26341PJ  26037.47791667  .00000000  00000+0  00000-0 0  9995
2 88252  40.0000 168.0000 0000000   0.0000  78.0000 14.42576027    10
CTC2_L_00121016-01
1 88253U 26074LY  26037.47791667  .00000000  00000+0  00000-0 0  9999
2 88253  40.0000 180.0000 0000000   0.0000 180.0000 14.42576027    19
CTC2_L_00121016-02
1 88254U 23417WO  26037.47791667  .00000000  00000+0  00000-0 0  9998
2 88254  40.0000 180.0000 0000000   0.0000 270.0000 14.42576027    10
